{
    "links": {
        "self": "http://www.neowsapp.com/rest/v1/neo/3797903?api_key=iIulBulltgU6a56xZRHN4H3l9WmuAYTsLGpBGhQ2"
    },
    "id": "3797903",
    "neo_reference_id": "3797903",
    "name": "(2018 BD5)",
    "designation": "2018 BD5",
    "nasa_jpl_url": "http://ssd.jpl.nasa.gov/sbdb.cgi?sstr=3797903",
    "absolute_magnitude_h": 26.0,
    "estimated_diameter": {
        "kilometers": {
            "estimated_diameter_min": 0.0167708462,
            "estimated_diameter_max": 0.0375007522
        },
        "meters": {
            "estimated_diameter_min": 16.7708462163,
            "estimated_diameter_max": 37.5007521798
        },
        "miles": {
            "estimated_diameter_min": 0.0104209175,
            "estimated_diameter_max": 0.0233018799
        },
        "feet": {
            "estimated_diameter_min": 55.0224631002,
            "estimated_diameter_max": 123.0339677816
        }
    },
    "is_potentially_hazardous_asteroid": false,
    "close_approach_data": [
        {
            "close_approach_date": "1910-10-05",
            "close_approach_date_full": "1910-Oct-05 21:53",
            "epoch_date_close_approach": -1869444420000,
            "relative_velocity": {
                "kilometers_per_second": "16.9473847143",
                "kilometers_per_hour": "61010.5849716326",
                "miles_per_hour": "37909.6048675125"
            },
            "miss_distance": {
                "astronomical": "0.2856222816",
                "lunar": "111.1070675424",
                "kilometers": "42728484.951900192",
                "miles": "26550249.3976869696"
            },
            "orbiting_body": "Earth"
        },
        {
            "close_approach_date": "1976-02-12",
            "close_approach_date_full": "1976-Feb-12 05:10",
            "epoch_date_close_approach": 192949800000,
            "relative_velocity": {
                "kilometers_per_second": "16.9189155935",
                "kilometers_per_hour": "60908.0961364902",
                "miles_per_hour": "37845.9222910319"
            },
            "miss_distance": {
                "astronomical": "0.2805096207",
                "lunar": "109.1182424523",
                "kilometers": "41963641.771227909",
                "miles": "26074997.8829227842"
            },
            "orbiting_body": "Earth"
        },
        {
            "close_approach_date": "2015-10-05",
            "close_approach_date_full": "2015-Oct-05 12:04",
            "epoch_date_close_approach": 1444046640000,
            "relative_velocity": {
                "kilometers_per_second": "18.0972829882",
                "kilometers_per_hour": "65150.2187574217",
                "miles_per_hour": "40481.8123162435"
            },
            "miss_distance": {
                "astronomical": "0.3240497113",
                "lunar": "126.0553376957",
                "kilometers": "48477146.584594931",
                "miles": "30122302.0979588078"
            },
            "orbiting_body": "Earth"
        },
        {
            "close_approach_date": "2018-01-20",
            "close_approach_date_full": "2018-Jan-20 10:39",
            "epoch_date_close_approach": 1516444740000,
            "relative_velocity": {
                "kilometers_per_second": "8.6457944675",
                "kilometers_per_hour": "31124.8600830522",
                "miles_per_hour": "19339.7776443832"
            },
            "miss_distance": {
                "astronomical": "0.0169910232",
                "lunar": "6.6095080248",
                "kilometers": "2541820.879840584",
                "miles": "1579414.2563206992"
            },
            "orbiting_body": "Earth"
        },
        {
            "close_approach_date": "2049-12-22",
            "close_approach_date_full": "2049-Dec-22 03:36",
            "epoch_date_close_approach": 2523756960000,
            "relative_velocity": {
                "kilometers_per_second": "10.8159462161",
                "kilometers_per_hour": "38937.4063781159",
                "miles_per_hour": "24194.1900908909"
            },
            "miss_distance": {
                "astronomical": "0.0967622364",
                "lunar": "37.6405099596",
                "kilometers": "14475424.461876468",
                "miles": "8994611.6749245384"
            },
            "orbiting_body": "Mars"
        }
    ],
    "orbital_data": {
        "orbit_id": "3",
        "orbit_determination_date": "2018-02-09 06:28:02",
        "first_observation_date": "2018-01-22",
        "last_observation_date": "2018-02-09",
        "data_arc_in_days": 18,
        "observations_used": 78,
        "orbit_uncertainty": "7",
        "minimum_orbit_intersection": ".0112587",
        "jupiter_tisserand_invariant": "4.175",
        "epoch_osculation": "2459000.5",
        "eccentricity": ".4390012292081127",
        "semi_major_axis": "1.643974501859336",
        "inclination": "1.765618708262531",
        "ascending_node_longitude": "319.3424974279237",
        "orbital_period": "769.9119187604101",
        "perihelion_distance": ".9222676747562928",
        "perihelion_argument": "120.710074621868",
        "aphelion_distance": "2.365681328962379",
        "perihelion_time": "2458878.255293918736",
        "mean_anomaly": "57.15990766854218",
        "mean_motion": ".46758595526046",
        "equinox": "J2000",
        "orbit_class": {
            "orbit_class_type": "APO",
            "orbit_class_description": "Near-Earth asteroid orbits which cross the Earth’s orbit similar to that of 1862 Apollo",
            "orbit_class_range": "a (semi-major axis) > 1.0 AU; q (perihelion) < 1.017 AU"
        }
    },
    "is_sentry_object": false
}